start=new Date('2021-12-14T00:00:00.000Z').valueOf();
sats=[{"EPHEMERIS_TYPE":"0","ARG_OF_PERICENTER":"88.0860","RA_OF_ASC_NODE":"180.5073","OBJECT_NAME":"STARLINK-1320","MEAN_MOTION_DDOT":"0.0000000000000","MEAN_ELEMENT_THEORY":"SGP4","MEAN_ANOMALY":"272.0414","OBJECT_TYPE":"PAYLOAD","TLE_LINE2":"2 45572  53.0538 180.5073 0002486  88.0860 272.0414 15.06391337 92372","MEAN_MOTION":"15.06391337","RCS_SIZE":"LARGE","REV_AT_EPOCH":"9237","BSTAR":"0.00003679000000","FILE":"3239585","REF_FRAME":"TEME","LAUNCH_DATE":"2020-04-22","SEMIMAJOR_AXIS":"6925.375","DECAY_DATE":null,"CENTER_NAME":"EARTH","NORAD_CAT_ID":"45572","SITE":"AFETR","INCLINATION":"53.0538","CLASSIFICATION_TYPE":"U","PERIAPSIS":"545.518","APOAPSIS":"548.962","ECCENTRICITY":"0.00024860","PERIOD":"95.593","MEAN_MOTION_DOT":"0.00000266","EPOCH":"2021-12-13T21:14:14.129664","OBJECT_ID":"2020-025AT","GP_ID":"191658045","TIME_SYSTEM":"UTC","COUNTRY_CODE":"US","TLE_LINE1":"1 45572U 20025AT  21347.88488576  .00000266  00000-0  36790-4 0  9996","ELEMENT_SET_NO":"999"},{"EPHEMERIS_TYPE":"0","RA_OF_ASC_NODE":"180.5985","ARG_OF_PERICENTER":"83.7155","MEAN_ANOMALY":"276.4094","MEAN_ELEMENT_THEORY":"SGP4","OBJECT_NAME":"STARLINK-1321","MEAN_MOTION_DDOT":"0.0000000000000","RCS_SIZE":"LARGE","REV_AT_EPOCH":"9206","OBJECT_TYPE":"PAYLOAD","TLE_LINE2":"2 45573  53.0536 180.5985 0002290  83.7155 276.4094 15.06391280 92060","MEAN_MOTION":"15.06391280","BSTAR":"0.00004551000000","FILE":"3239585","SEMIMAJOR_AXIS":"6925.375","REF_FRAME":"TEME","LAUNCH_DATE":"2020-04-22","DECAY_DATE":null,"NORAD_CAT_ID":"45573","CENTER_NAME":"EARTH","SITE":"AFETR","CLASSIFICATION_TYPE":"U","PERIAPSIS":"545.654","APOAPSIS":"548.826","INCLINATION":"53.0536","PERIOD":"95.593","ECCENTRICITY":"0.00022900","MEAN_MOTION_DOT":"0.00000396","EPOCH":"2021-12-13T20:42:22.956480","COUNTRY_CODE":"US","TLE_LINE1":"1 45573U 20025AU  21347.86276570  .00000396  00000-0  45510-4 0  9998","OBJECT_ID":"2020-025AU","GP_ID":"191658797","TIME_SYSTEM":"UTC","ELEMENT_SET_NO":"999"},{"LAUNCH_DATE":"2020-04-22","REF_FRAME":"TEME","SEMIMAJOR_AXIS":"6925.378","FILE":"3239585","CENTER_NAME":"EARTH","NORAD_CAT_ID":"45574","DECAY_DATE":null,"OBJECT_NAME":"STARLINK-1324","MEAN_MOTION_DDOT":"0.0000000000000","MEAN_ANOMALY":"276.9280","MEAN_ELEMENT_THEORY":"SGP4","RA_OF_ASC_NODE":"180.4869","ARG_OF_PERICENTER":"83.1946","EPHEMERIS_TYPE":"0","BSTAR":"0.00003743800000","MEAN_MOTION":"15.06390443","OBJECT_TYPE":"PAYLOAD","TLE_LINE2":"2 45574  53.0538 180.4869 0002080  83.1946 276.9280 15.06390443 92389","RCS_SIZE":"LARGE","REV_AT_EPOCH":"9238","EPOCH":"2021-12-13T21:19:33.045024","MEAN_MOTION_DOT":"0.00000276","ECCENTRICITY":"0.00020800","PERIOD":"95.593","ELEMENT_SET_NO":"999","TIME_SYSTEM":"UTC","GP_ID":"191657044","OBJECT_ID":"2020-025AV","TLE_LINE1":"1 45574U 20025AV  21347.88857691  .00000276  00000-0  37438-4 0  9997","COUNTRY_CODE":"US","INCLINATION":"53.0538","PERIAPSIS":"545.802","APOAPSIS":"548.683","CLASSIFICATION_TYPE":"U","SITE":"AFETR"},{"COUNTRY_CODE":"US","TLE_LINE1":"1 45575U 20025AW  21347.84445049  .00002810  00000-0  19487-3 0  9993","GP_ID":"191657295","OBJECT_ID":"2020-025AW","TIME_SYSTEM":"UTC","ELEMENT_SET_NO":"999","PERIOD":"95.441","ECCENTRICITY":"0.00020350","MEAN_MOTION_DOT":"0.00002810","EPOCH":"2021-12-13T20:16:00.522336","SITE":"AFETR","CLASSIFICATION_TYPE":"U","PERIAPSIS":"538.525","APOAPSIS":"541.341","INCLINATION":"52.9997","DECAY_DATE":null,"NORAD_CAT_ID":"45575","CENTER_NAME":"EARTH","FILE":"3239585","SEMIMAJOR_AXIS":"6918.068","REF_FRAME":"TEME","LAUNCH_DATE":"2020-04-22","REV_AT_EPOCH":"9241","RCS_SIZE":"LARGE","OBJECT_TYPE":"PAYLOAD","TLE_LINE2":"2 45575  52.9997 176.2545 0002035 101.3421 258.7797 15.08778626 92412","MEAN_MOTION":"15.08778626","BSTAR":"0.00019487000000","EPHEMERIS_TYPE":"0","ARG_OF_PERICENTER":"101.3421","RA_OF_ASC_NODE":"176.2545","MEAN_ELEMENT_THEORY":"SGP4","MEAN_ANOMALY":"258.7797","MEAN_MOTION_DDOT":"0.0000000000000","OBJECT_NAME":"STARLINK-1326"},{"INCLINATION":"53.0527","PERIAPSIS":"545.669","APOAPSIS":"548.793","CLASSIFICATION_TYPE":"U","SITE":"AFETR","ELEMENT_SET_NO":"999","TIME_SYSTEM":"UTC","OBJECT_ID":"2020-025AX","GP_ID":"191658545","TLE_LINE1":"1 45576U 20025AX  21347.91437048  .00000518  00000-0  53704-4 0  9996","COUNTRY_CODE":"US","EPOCH":"2021-12-13T21:56:41.609472","MEAN_MOTION_DOT":"0.00000518","ECCENTRICITY":"0.00022550","PERIOD":"95.592","BSTAR":"0.00005370400000","MEAN_MOTION":"15.06394349","OBJECT_TYPE":"PAYLOAD","TLE_LINE2":"2 45576  53.0527 180.3622 0002255  84.3069 275.8177 15.06394349 92380","REV_AT_EPOCH":"9238","RCS_SIZE":"LARGE","MEAN_MOTION_DDOT":"0.0000000000000","OBJECT_NAME":"STARLINK-1328","MEAN_ELEMENT_THEORY":"SGP4","MEAN_ANOMALY":"275.8177","RA_OF_ASC_NODE":"180.3622","ARG_OF_PERICENTER":"84.3069","EPHEMERIS_TYPE":"0","CENTER_NAME":"EARTH","NORAD_CAT_ID":"45576","DECAY_DATE":null,"LAUNCH_DATE":"2020-04-22","REF_FRAME":"TEME","SEMIMAJOR_AXIS":"6925.366","FILE":"3239585"},{"PERIAPSIS":"545.479","APOAPSIS":"548.940","CLASSIFICATION_TYPE":"U","INCLINATION":"53.0521","SITE":"AFETR","EPOCH":"2021-12-13T20:52:58.827648","MEAN_MOTION_DOT":"0.00000526","PERIOD":"95.592","ECCENTRICITY":"0.00024990","ELEMENT_SET_NO":"999","TLE_LINE1":"1 45577U 20025AY  21347.87012532  .00000526  00000-0  54219-4 0  9990","COUNTRY_CODE":"US","TIME_SYSTEM":"UTC","GP_ID":"191658298","OBJECT_ID":"2020-025AY","MEAN_ELEMENT_THEORY":"SGP4","MEAN_ANOMALY":"280.3536","OBJECT_NAME":"STARLINK-1330","MEAN_MOTION_DDOT":"0.0000000000000","ARG_OF_PERICENTER":"79.7735","RA_OF_ASC_NODE":"180.5656","EPHEMERIS_TYPE":"0","BSTAR":"0.00005421900000","RCS_SIZE":"LARGE","REV_AT_EPOCH":"9236","MEAN_MOTION":"15.06401425","TLE_LINE2":"2 45577  53.0521 180.5656 0002499  79.7735 280.3536 15.06401425 92364","OBJECT_TYPE":"PAYLOAD","SEMIMAJOR_AXIS":"6925.344","LAUNCH_DATE":"2020-04-22","REF_FRAME":"TEME","FILE":"3239585","NORAD_CAT_ID":"45577","CENTER_NAME":"EARTH","DECAY_DATE":null},{"CLASSIFICATION_TYPE":"U","PERIAPSIS":"545.651","APOAPSIS":"548.831","INCLINATION":"53.0543","SITE":"AFETR","ELEMENT_SET_NO":"999","COUNTRY_CODE":"US","TLE_LINE1":"1 45578U 20025AZ  21347.84065432  .00000367  00000-0  43555-4 0  9999","OBJECT_ID":"2020-025AZ","GP_ID":"191657544","TIME_SYSTEM":"UTC","MEAN_MOTION_DOT":"0.00000367","EPOCH":"2021-12-13T20:10:32.533248","PERIOD":"95.593","ECCENTRICITY":"0.00022960","BSTAR":"0.00004355500000","RCS_SIZE":"LARGE","REV_AT_EPOCH":"9237","TLE_LINE2":"2 45578  53.0543 180.7046 0002296  84.7878 275.3373 15.06391035 92372","OBJECT_TYPE":"PAYLOAD","MEAN_MOTION":"15.06391035","MEAN_ANOMALY":"275.3373","MEAN_ELEMENT_THEORY":"SGP4","MEAN_MOTION_DDOT":"0.0000000000000","OBJECT_NAME":"STARLINK-1331","EPHEMERIS_TYPE":"0","ARG_OF_PERICENTER":"84.7878","RA_OF_ASC_NODE":"180.7046","NORAD_CAT_ID":"45578","CENTER_NAME":"EARTH","DECAY_DATE":null,"SEMIMAJOR_AXIS":"6925.376","REF_FRAME":"TEME","LAUNCH_DATE":"2020-04-22","FILE":"3239585"},{"TLE_LINE2":"2 45579  53.0534 140.7280 0005638 109.3260 250.8339 15.06393509 92920","OBJECT_TYPE":"PAYLOAD","MEAN_MOTION":"15.06393509","RCS_SIZE":"LARGE","REV_AT_EPOCH":"9292","BSTAR":"0.00005797100000","EPHEMERIS_TYPE":"0","RA_OF_ASC_NODE":"140.7280","ARG_OF_PERICENTER":"109.3260","OBJECT_NAME":"STARLINK-1332","MEAN_MOTION_DDOT":"0.0000000000000","MEAN_ANOMALY":"250.8339","MEAN_ELEMENT_THEORY":"SGP4","DECAY_DATE":null,"CENTER_NAME":"EARTH","NORAD_CAT_ID":"45579","FILE":"3239585","REF_FRAME":"TEME","LAUNCH_DATE":"2020-04-22","SEMIMAJOR_AXIS":"6925.368","SITE":"AFETR","INCLINATION":"53.0534","CLASSIFICATION_TYPE":"U","PERIAPSIS":"543.329","APOAPSIS":"551.138","OBJECT_ID":"2020-025BA","GP_ID":"191657795","TIME_SYSTEM":"UTC","COUNTRY_CODE":"US","TLE_LINE1":"1 45579U 20025BA  21347.83235042  .00000580  00000-0  57971-4 0  9999","ELEMENT_SET_NO":"999","ECCENTRICITY":"0.00056380","PERIOD":"95.593","MEAN_MOTION_DOT":"0.00000580","EPOCH":"2021-12-13T19:58:35.076288"},{"ECCENTRICITY":"0.00026250","PERIOD":"95.593","EPOCH":"2021-12-13T20:19:47.869248","MEAN_MOTION_DOT":"-0.00001167","TIME_SYSTEM":"UTC","OBJECT_ID":"2020-025BB","GP_ID":"191658046","TLE_LINE1":"1 45580U 20025BB  21347.84708182 -.00001167  00000-0 -59433-4 0  9991","COUNTRY_CODE":"US","ELEMENT_SET_NO":"999","SITE":"AFETR","INCLINATION":"53.0529","PERIAPSIS":"545.418","APOAPSIS":"549.053","CLASSIFICATION_TYPE":"U","FILE":"3239585","LAUNCH_DATE":"2020-04-22","REF_FRAME":"TEME","SEMIMAJOR_AXIS":"6925.371","DECAY_DATE":null,"CENTER_NAME":"EARTH","NORAD_CAT_ID":"45580","RA_OF_ASC_NODE":"190.6632","ARG_OF_PERICENTER":"77.2849","EPHEMERIS_TYPE":"0","OBJECT_NAME":"STARLINK-1333","MEAN_MOTION_DDOT":"0.0000000000000","MEAN_ANOMALY":"282.8433","MEAN_ELEMENT_THEORY":"SGP4","MEAN_MOTION":"15.06392824","OBJECT_TYPE":"PAYLOAD","TLE_LINE2":"2 45580  53.0529 190.6632 0002625  77.2849 282.8433 15.06392824 92222","RCS_SIZE":"LARGE","REV_AT_EPOCH":"9222","BSTAR":"-0.00005943300000"},{"FILE":"3239585","SEMIMAJOR_AXIS":"6925.346","REF_FRAME":"TEME","LAUNCH_DATE":"2020-04-22","DECAY_DATE":null,"NORAD_CAT_ID":"45581","CENTER_NAME":"EARTH","EPHEMERIS_TYPE":"0","RA_OF_ASC_NODE":"180.3487","ARG_OF_PERICENTER":"88.8573","MEAN_ANOMALY":"271.2672","MEAN_ELEMENT_THEORY":"SGP4","OBJECT_NAME":"STARLINK-1335","MEAN_MOTION_DDOT":"0.0000000000000","REV_AT_EPOCH":"9237","RCS_SIZE":"LARGE","TLE_LINE2":"2 45581  53.0535 180.3487 0002233  88.8573 271.2672 15.06400780 92375","OBJECT_TYPE":"PAYLOAD","MEAN_MOTION":"15.06400780","BSTAR":"0.00004902600000","PERIOD":"95.592","ECCENTRICITY":"0.00022330","MEAN_MOTION_DOT":"0.00000449","EPOCH":"2021-12-13T22:01:59.234016","COUNTRY_CODE":"US","TLE_LINE1":"1 45581U 20025BC  21347.91804669  .00000449  00000-0  49026-4 0  9994","OBJECT_ID":"2020-025BC","GP_ID":"191658798","TIME_SYSTEM":"UTC","ELEMENT_SET_NO":"999","SITE":"AFETR","CLASSIFICATION_TYPE":"U","PERIAPSIS":"545.665","APOAPSIS":"548.758","INCLINATION":"53.0535"}];
